[{"OBJECT_NAME":"JILIN-1 GAOFEN 3G","OBJECT_ID":"2020-065F","EPOCH":"2026-03-09T21:50:59.195040","MEAN_MOTION":15.57918235,"ECCENTRICITY":0.00133019,"INCLINATION":97.2459,"RA_OF_ASC_NODE":123.1669,"ARG_OF_PERICENTER":66.7288,"MEAN_ANOMALY":293.5367,"EPHEMERIS_TYPE":0,"CLASSIFICATION_TYPE":"U","NORAD_CAT_ID":46459,"ELEMENT_SET_NO":999,"REV_AT_EPOCH":30442,"BSTAR":0.00076250561,"MEAN_MOTION_DOT":0.00057372,"MEAN_MOTION_DDOT":0},{"OBJECT_NAME":"SITRO-AIS 42","OBJECT_ID":"2024-199X","EPOCH":"2026-03-09T22:21:47.562336","MEAN_MOTION":15.56144325,"ECCENTRICITY":0.0004269,"INCLINATION":97.3087,"RA_OF_ASC_NODE":305.2142,"ARG_OF_PERICENTER":282.8573,"MEAN_ANOMALY":77.2205,"EPHEMERIS_TYPE":0,"CLASSIFICATION_TYPE":"U","NORAD_CAT_ID":61756,"ELEMENT_SET_NO":999,"REV_AT_EPOCH":12230,"BSTAR":0.00091920276,"MEAN_MOTION_DOT":0.00064603,"MEAN_MOTION_DDOT":0}]
